"id","city_ar","city_en","name_ar","name_en","address_ar","address_en","link","phone","createdAt","updatedAt"
"13","المنطقة الغربية ","Outside the Kingdom of Saudi Arabia","جدة - الرحيلي ","Jeddah - Al Ruhaili","في محطة الرحيلي ","At Al-Ruhaili Station","https://maps.app.goo.gl/hgnNzQt85YqASWp36","920016097","2026-01-29 11:40:51.118","2026-01-29 11:41:21.186"
"14","المنطقة الغربية ","Outside the Kingdom of Saudi Arabia","ينبع - التأخي ","Yanbu - altakhi","في ينبع حي التأخي ","In Yanbu, Al-Taakhi neighborhood","https://maps.app.goo.gl/2c7WZLjTNXZ6Qxmt8","920016097","2026-01-29 11:45:49.943","2026-01-29 11:54:39.502"
"15","المنطقة الغربية ","Outside the Kingdom of Saudi Arabia","الطائف - السيل الصغير ","Ta'if - Al-Sail Al-Sagheer","في الطائف حي السيل الصغير ","In Taif, Al-Seil Al-Sagheer neighborhood","https://maps.app.goo.gl/nFaAjWfDeNHMwHZq5","920016097","2026-01-29 11:47:42.582","2026-01-29 11:47:53.442"
"16","المنطقة الوسطى"," central region","الرياض - العقيق ","Al-Riyadh – Al-Aqiq","الرياض- العقيق","Al-Riyadh – Al-Aqiq","https://maps.app.goo.gl/Veq77nzhGyA7tpbL9","920016097","2026-01-29 11:50:19.982","2026-01-29 11:52:57.548"
"17","المنطقة الوسطى","Outside the Kingdom of Saudi Arabia","الرياض - أم الحمام ",,"الرياض حي أم الحمام ","Riyadh, in the Umm Al-Hamam neighborhood","https://maps.app.goo.gl/uAJfY1mkLQnABVoy6","920016097","2026-01-29 11:50:49.990","2026-01-29 11:50:49.990"
"18","المنطقة الوسطى","Outside the Kingdom of Saudi Arabia","الرياض - الندوة ","Riyadh - alnadwa","الرياض حي الندوة ","Riyadh, Al-Nadwa District","https://maps.app.goo.gl/tG8Pg9BoXZKcDWcu7","920016097","2026-01-29 11:52:53.607","2026-01-29 11:52:53.607"
"19","المنطقة الوسطى"," central region","الرياض - المصيف ","Riyadh – Al-Maseef District","الرياض - المصيف ","Riyadh – Al-Maseef District","https://maps.app.goo.gl/NkTDaybaky4ut85P7","920016097","2026-01-29 11:54:16.837","2026-01-29 11:54:16.837"
"20","المنطقة الجنوبية ","southern region","أبها - المحالة ","Abha – Al-Muhalah","أبها - المحالة ","Abha – Al-Muhalah","https://maps.app.goo.gl/ogLw2T4iieTqF8Wq7","920016097","2026-01-29 11:55:33.278","2026-01-29 11:55:33.278"
"21","المنطقة الغربية ","Western Region","المدينة المنورة - طريق السلام","Madinah - Al Salam Road","في المدينة طريق السلام","Madinah - Al Salam Road","https://maps.app.goo.gl/vhj8hmq7NU28nRug6","920016097","2026-01-29 11:56:13.116","2026-01-29 11:57:22.102"
"22","المنطقة الوسطى"," central region","الرياض - القدس ","Riyadh – Al-Quds","الرياض - القدس ","Riyadh – Al-Quds","https://maps.app.goo.gl/TYk3MwzKPDhoUyAC9","920016097","2026-01-29 11:56:30.452","2026-01-29 11:56:30.452"
"23","المنطقة الوسطى"," central region","الرياض - خريص ","Riyadh – Khurais","الرياض - خريص ","Riyadh – Khurais","https://maps.app.goo.gl/KWvsqwWtamPk1Dvp8","920016097","2026-01-29 11:57:31.833","2026-01-29 11:57:31.833"
"24","المنطقة الغربية ","Western Region","جدة - النهضة ","Jeddah – Al-Nahdah","جدة - النهضة ","Jeddah – Al-Nahdah","https://maps.app.goo.gl/A5u6K43zmE7ccAxv5","920016097","2026-01-29 11:58:23.317","2026-01-29 11:58:23.317"
"25","المنطقة الوسطى"," central region","الرياض - الملز","Riyadh - Al Malaz","في الرياض الملز","Riyadh - Al Malaz","46	الرياض	الملز	46-A	https://maps.app.goo.gl/sDqaDEk27c2kRSXu8					","920016097","2026-01-29 11:58:30.408","2026-01-29 11:58:30.408"
"26","المنطقة الوسطى"," central region","الرياض - الربيع ","Riyadh – Al-Rabie","الرياض - الربيع","Riyadh – Al-Rabie","https://maps.app.goo.gl/WA9pHJkrpPxgBcXi8","920016097","2026-01-29 11:59:21.240","2026-01-29 12:10:46.012"
"27","المنطقة الوسطى"," central region","الرياض - السليمانية ","Riyadh – Al-Sulaimaniyah","الرياض - السليمانية ","Riyadh – Al-Sulaimaniyah","https://maps.app.goo.gl/BtLPTbXhabjxQfGYA","920016097","2026-01-29 12:00:28.354","2026-01-29 12:00:28.354"
"28","المنطقة الجنوبية ","southern region","الباحة - طريق العقيق","Al-Baha - Al-Aqiq Road","الباحة طريق العقيق","Al-Baha - Al-Aqiq Road","47	الباحة	طريق العقيق	47-A	https://maps.app.goo.gl/mZ6NxsKbFZ2DKTAx6					","920016097","2026-01-29 12:00:42.883","2026-01-29 12:00:42.883"
"29","المنطقة الوسطى"," central region","الرياض - الرمال","Riyadh - Al-Rimal","الرياض  الرمال","Riyadh - Al-Rimal","48	الرياض	الرمال	48-A	https://maps.app.goo.gl/L6ZFTnJnH9WppZFw9					","920016097","2026-01-29 12:02:46.493","2026-01-29 12:02:46.493"
"30","المنطقة الوسطى"," central region","الرياض - اليرموك ","Riyadh – Al-Yarmouk","الرياض - اليرموك","Riyadh – Al-Yarmouk","https://maps.app.goo.gl/p5Upcdu3KSQK67Pz7","920016097","2026-01-29 12:02:50.889","2026-01-29 12:02:50.889"
"31","المنطقة الجنوبية ","southern region","أبها - الوردتين ","Abha – Al-Wardatayn","أبها - الوردتين ","Abha – Al-Wardatayn","https://maps.app.goo.gl/gQwWZ73J6LgTLuA69","920016097","2026-01-29 12:03:52.011","2026-01-29 12:10:30.398"
"32","المنطقة الشرقية","Eastern region","الاحساء المبرز - طريق عين نجم","Al-Ahsa, Al-Mubarraz - Ain Najm Road","الاحساء المبرز - طريق عين نجم","Al-Ahsa, Al-Mubarraz - Ain Najm Road","			49	الأحساء-المبرز	طريق عين نجم	49-A	https://maps.app.goo.gl/YDX7xQbYHMQm7L918					","920016097","2026-01-29 12:04:09.899","2026-01-29 12:04:09.899"
"33","المنطقة الوسطى"," central region","الرياض - طريق القصيم","Riyadh - Qassim Road","الرياض طريق القصيم","Riyadh - Qassim Road","https://maps.app.goo.gl/rbN42VzVcFi1joXk9","920016097","2026-01-29 12:06:06.545","2026-01-29 12:06:06.545"
"34","المنطقة الغربية ","Western Region","الطائف - شهار","Taif - Shihar","الطائف شهار","Taif - Shihar","https://maps.app.goo.gl/zReV8w8eFBJ6EUQZ7","920016097","2026-01-29 12:07:35.270","2026-01-29 12:07:35.270"
"35","المنطقة الجنوبية ","southern region","خميس مشيط - طريق المدينة ","Khamis Mushait – Al-Madinah Road","خميس مشيط - طريق المدينة ","Khamis Mushait – Al-Madinah Road","https://maps.app.goo.gl/dCmwkVYjEY1zMfeu7","920016097","2026-01-29 12:07:48.774","2026-01-29 12:10:17.203"
"36","المنطقة الوسطى"," central region","الرياض - النظيم","Riyadh - Al-Nazeem","الرياض النظيم","Riyadh - Al-Nazeem","https://maps.app.goo.gl/7bG9fjt8EivZM5UG7","920016097","2026-01-29 12:09:20.552","2026-01-29 12:09:20.552"
"37","المنطقة الوسطى"," central region","الرياض - النرجس طريق الأمير فيصل بن بندر ","Riyadh – Al-Narjis, Prince Faisal bin Bandar Road","الرياض - النرجس طريق الأمير فيصل بن بندر","Riyadh – Al-Narjis, Prince Faisal bin Bandar Road","https://maps.app.goo.gl/aMvVjS4s464FocPE8","920016097","2026-01-29 12:09:57.168","2026-01-29 12:10:05.866"
"38","المنطقة الوسطى"," central region","الرياض - حطين","Riyadh - Hittin","الرياض - حطين","Riyadh - Hittin","https://maps.app.goo.gl/if1GMYiVqJJ2AZRL6","920016097","2026-01-29 12:10:23.796","2026-01-29 12:10:23.796"
"39","المنطقة الغربية ","Western Region","الطائف - الحوية","Taif - Al-Hawiyah","الطائف الحوية","Taif - Al-Hawiyah","https://maps.app.goo.gl/7ySoh77TGVDbxbJr9","920016097","2026-01-29 12:11:07.905","2026-01-29 12:11:16.821"
"40","المنطقة الوسطى"," central region","الرياض - البديعة","Riyadh - Al-Badi'ah","الرياض البديعة","Riyadh - Al-Badi'ah","https://maps.app.goo.gl/vUxSGMw8XcEhHkfJ7","920016097","2026-01-29 12:12:31.812","2026-01-29 12:12:51.834"
"41","المنطقة الجنوبية ","southern region","أبها - القرعاء","Abha - AlQur'aa","أبها حي القرعاء في جامعة الملك خالد","Abha, Al-Qara'a district, at King Khalid University","https://maps.app.goo.gl/JWjaEqtAw3HeAa1J6","920016097","2026-01-29 12:14:01.264","2026-01-29 12:14:32.178"
"42","المنطقة الوسطى"," central region","الرياض - الدرعية","Riyadh - Diriyah","الرياض الدرعية","Riyadh - Diriyah","https://maps.app.goo.gl/DPkzfdq88dGFdzk47","920016097","2026-01-29 12:14:13.790","2026-01-29 12:14:13.790"
"43","المنطقة الوسطى"," central region","بريدة - الصفاء","بريدة - الصفاء","القصيم بريدة حي الصفاء","Al-Qassim, Buraidah, Al-Safaa District","https://maps.app.goo.gl/LdYKLATULYVWoxat9","920016097","2026-01-29 12:19:04.572","2026-01-29 12:19:04.572"
"44","المنطقة الغربية ","Western Region","مكة المكرمة - الزايدي","Mecca - AlZaidi","مكة المكرمة حي الزايدي","Mecca, Al-Zaidi District","https://maps.app.goo.gl/htfyFKnnqZPyjqLM9","920016097","2026-01-29 12:22:02.453","2026-01-29 12:22:02.453"
"45","المنطقة الشرقية","Eastern region","القطيف - المشتل ","Qatif - Al-Mushtal","في القطيف حي المشتل ","In Al-Meshtal neighborhood, Qatif","https://maps.app.goo.gl/MgTwNM5kgyJL2ahn9","920016097","2026-01-29 12:23:38.978","2026-01-29 12:23:38.978"
"46","المنطقة الوسطى"," central region","الرياض - الدائري الغربي ","Riyadh - Western Ring Road","الرياض في حي السويدي الغربي في طريق الدائري الشرقي","Riyadh in the western neighborhood of Al-Suwaidi on the Eastern Ring Road","https://maps.app.goo.gl/kjzBmaZeUZkTwY8M7","920016097","2026-01-29 12:25:45.674","2026-01-29 12:42:52.055"
"47","المنطقة الوسطى"," central region","الرياض - الهدا","Riyadh - Al Hada","الرياض في حي الهداء ","Riyadh in Al-Huda neighborhood","https://maps.app.goo.gl/ipGnhXyvP9PrBB838","920016097","2026-01-29 12:27:25.277","2026-01-29 12:27:25.277"
"48","المنطقة الجنوبية ","southern region","جازان - بيش ","Jazan - Bish","في جازان بيش ","In Jazan, Bish","https://maps.app.goo.gl/5wqofaHmat1j7mEc9","920016097","2026-01-29 12:29:46.853","2026-01-29 12:29:46.853"
"49","المنطقة الوسطى"," central region","الرياض - السعادة","Riyadh - Happiness","الرياض السعادة","Riyadh - Happiness","https://maps.app.goo.gl/D35r8fWPmSb9W2wU8","920016097","2026-01-29 12:40:55.906","2026-01-29 12:40:55.906"
"50","المنطقة الغربية ","Western Region","الطائف - الحلقة","Taif - Episode","الطائف - الحلقة","Taif - Episode","https://maps.app.goo.gl/wibcQEdUwo3195wh8","920016097","2026-01-29 12:42:31.077","2026-01-29 12:42:31.077"
"51","المنطقة الغربية ","Western Region","مكة - الشرائع","Mecca - Al-Shara'i","مكة الشرائع","Mecca - Al-Shara'i","https://maps.app.goo.gl/8dsKiDuLFQm9hCuH8","920016097","2026-01-29 12:43:38.001","2026-01-29 12:44:46.855"
"52","المنطقة الغربية ","Western Region","مكة المكرمة - الجموم ","Mecca - Al-Jamoom","مكة المكرمة الجموم ","Mecca - Al-Jamoom","https://maps.app.goo.gl/kWk3Yy96Y8Gq689k6","920016097","2026-01-29 12:43:42.853","2026-01-29 12:43:42.853"
"53","المنطقة الوسطى"," central region","حريملاء - طريق الملك عبدالله ","Harimlaa - King Abdullah Road","حريملاء - طريق الملك عبدالله ","Harimlaa - King Abdullah Road","https://maps.app.goo.gl/FjZnacnP3eXT2Wc57","920016097","2026-01-29 12:45:19.235","2026-01-29 12:45:19.235"
"54","المنطقة الغربية ","Western Region","مكة - الشوقية","Mecca - Al Shawqiyah","مكة - الشوقية","Mecca - Al Shawqiyah","https://maps.app.goo.gl/du7Hx4KBJXf4oXnW6","920016097","2026-01-29 12:45:53.610","2026-01-29 12:45:53.610"
"55","المنطقة الجنوبية ","southern region","جازان - الدرب ","Jazan - Al Darb","جازان - الدرب ","Jazan - Al Darb","https://maps.app.goo.gl/KQgd6aBW9mBW4Y6k9","920016097","2026-01-29 12:46:21.609","2026-01-29 12:46:21.609"
"56","المنطقة الوسطى"," central region","الرياض - الربوة","Riyadh - Al Rabwah","الرياض  الربوة","Riyadh - Al Rabwah","https://maps.app.goo.gl/THtFDWZc2vrn4SKk9","920016097","2026-01-29 12:46:53.321","2026-01-29 12:46:53.321"
"57","المنطقة الغربية ","Western Region","جدة - الزهراء","Jeddah - Al-Zahra","جدة - الزهراء","Jeddah - Al-Zahra","https://maps.app.goo.gl/TYPpE8RMqxwDFKk58","920016097","2026-01-29 12:47:18.435","2026-01-29 12:54:55.298"
"58","المنطقة الوسطى"," central region","الرياض - الفيحاء","Riyadh - Al-Fayha","الرياض - الفيحاء","Riyadh - Al-Fayha","https://maps.app.goo.gl/6UAmY1qvVWTFC5RQA","920016097","2026-01-29 12:47:42.649","2026-01-29 12:47:42.649"
"59","المنطقة الوسطى"," central region","الرياض - قرطبة ","Riyadh, Qurtubah","الرياض - قرطبة ","Riyadh, Qurtubah","https://maps.app.goo.gl/NeknBSK6t1gHv8eU9","920016097","2026-01-29 12:48:06.291","2026-01-29 12:48:06.291"
"60","المنطقة الوسطى"," central region","الرياض - العوالي","Riyadh - Al-Awali","الرياض - العوالي","Riyadh - Al-Awali","https://maps.app.goo.gl/sTgu8pxwQYGMSoNEA","920016097","2026-01-29 12:48:30.866","2026-01-29 12:48:30.866"
"61","المنطقة الوسطى"," central region","بريدة-الريان","Buraidah-Al Rayyan","بريدة-الريان","Buraidah-Al Rayyan","https://maps.app.goo.gl/GbPi7uG4diM5hDGb8","920016097","2026-01-29 12:48:54.284","2026-01-29 12:48:54.284"
"62","المنطقة الجنوبية ","southern region","جازان - الشاطئ ","Jazan Al-Shati’","جازان - الشاطئ ","Jazan Al-Shati’","https://maps.app.goo.gl/vBkvsoG8orex8aye9","920016097","2026-01-29 12:49:04.732","2026-01-29 12:49:04.732"
"63","المنطقة الغربية ","Western Region","جدة - النسيم","Jeddah - Al Naseem","جدة - النسيم","Jeddah - Al Naseem","https://maps.app.goo.gl/sVcKuR8WVzNxc5JK6","920016097","2026-01-29 12:49:42.466","2026-01-29 12:49:42.466"
"64","المنطقة الوسطى"," central region","الرياض - النخيل ","Riyadh Al-Nakheel","الرياض - النخيل ","Riyadh Al-Nakheel","https://maps.app.goo.gl/RyQdPxzMPPyiDjQh8","920016097","2026-01-29 12:50:09.061","2026-01-29 12:50:09.061"
"65","المنطقة الجنوبية ","southern region","خميس مشيط-الحسام","Khamis Mushait-Al Hussam","خميس مشيط-الحسام","Khamis Mushait-Al Hussam","https://maps.app.goo.gl/z2LUMiaknf2HPRYf6","920016097","2026-01-29 12:50:24.305","2026-01-29 12:50:24.305"
"66","المنطقة الشرقية","Eastern region","حفر الباطن - المحمدية","Hafar Al-Batin - Al-Muhammadiyah","حفر الباطن - المحمدية","Hafar Al-Batin - Al-Muhammadiyah","https://maps.app.goo.gl/upiZcRAuksvC9jhJ9","920016097","2026-01-29 12:50:38.834","2026-01-29 12:50:38.834"
"67","المنطقة الجنوبية ","southern region","بيشة - الخزامى ","Bisha Al-Khuzama","بيشة - الخزامى ","Bisha Al-Khuzama","https://maps.app.goo.gl/oCKYwjH8YBtRfD2g7","920016097","2026-01-29 12:50:58.126","2026-01-29 12:54:40.613"
"68","المنطقة الوسطى"," central region","الرياض-طويق","Riyadh-Tuwaiq","الرياض-طويق","Riyadh-Tuwaiq","https://maps.app.goo.gl/RpPrUtJEM9vejJaa6","920016097","2026-01-29 12:51:37.675","2026-01-29 12:51:37.675"
"69","المنطقة الجنوبية ","southern region","احد رفيدة - السلامة","Ahad Rafidah - Al Salamah","احد رفيدة السلامة","Ahad Rafidah - Al Salamah","https://maps.app.goo.gl/SPrhukPpQ7vPkyHG8","920016097","2026-01-29 12:52:03.890","2026-01-29 12:52:03.890"
"70","المنطقة الجنوبية ","southern region","نجران - الأمير مشعل ","Najran Prince Mishal","نجران - الأمير مشعل ","Najran Prince Mishal","https://maps.app.goo.gl/C2z4hDHY6C9kyfxw8","920016097","2026-01-29 12:52:49.536","2026-01-29 12:54:26.693"
"71","المنطقة الوسطى"," central region","الرياض - الأحمدية ","Riyadh - Ahmadiyya","الرياض - الأحمدية ","Riyadh - Ahmadiyya","https://maps.app.goo.gl/bxtrkeLEnZzvgNRi9","920016097","2026-01-29 12:52:50.140","2026-01-29 12:52:50.140"
"72","المنطقة الوسطى"," central region","الرياض-عرقة","Riyadh-Irqah","الرياض-عرقة","Riyadh-Irqah","https://maps.app.goo.gl/BhjFRk4JR7xro5a5A","920016097","2026-01-29 12:53:04.379","2026-01-29 12:53:04.379"
"73","المنطقة الشرقية","Eastern region","الدمام - الفيصلية","Dammam - Al Faisaliyah","الدمام - الفيصلية","Dammam - Al Faisaliyah","https://maps.app.goo.gl/6pXw285CWUW4vkZS7","920016097","2026-01-29 12:53:36.810","2026-01-29 12:53:36.810"
"74","المنطقة الشرقية","Eastern region","الأحساء - الهفوف الضلع الشرقي ","Al-Ahsa – Al-Hofuf, East Side","الأحساء - الهفوف الضلع الشرق","Al-Ahsa – Al-Hofuf, East Side","https://maps.app.goo.gl/HsC8EhbZnNn9o1i7A","920016097","2026-01-29 12:54:03.144","2026-01-29 12:54:14.344"
"75","المنطقة الوسطى"," central region","الرياض - الشهداء ","Riyadh - ash-shuhada'","الرياض - الشهداء ","Riyadh - ash-shuhada'","https://maps.app.goo.gl/1MeWw7WN3YNU4M1J8","920016097","2026-01-29 12:54:12.026","2026-01-29 12:54:12.026"
"76","المنطقة الجنوبية ","southern region","صبيا-طريق الملك فهد","Sabya-King Fahd Road","صبيا-طريق الملك فهد","Sabya-King Fahd Road","https://maps.app.goo.gl/s7racVvw6uEmQa7r8","920016097","2026-01-29 12:54:38.593","2026-01-29 12:54:38.593"
"77","المنطقة الوسطى"," central region","الرياض - النرجس عثمان بن عفان","Riyadh - Nargis Othman bin Affan","الرياض  النرجس عثمان بن عفان","Riyadh - Nargis Othman bin Affan","https://maps.app.goo.gl/SAQiCrzgQpP9y5C78","920016097","2026-01-29 12:54:52.395","2026-01-29 12:54:52.395"
"78","المنطقة الوسطى"," central region","الرياض - النزهة ","Riyadh - Al-Nozha","الرياض - النزهة ","Riyadh - Al-Nozha","https://maps.app.goo.gl/umBmMkrXuwV1w4XN7","920016097","2026-01-29 12:55:32.040","2026-01-29 12:55:32.040"
"79","المنطقة الشرقية","Eastern region","الخبر - العقربية","Al-Khobar - Al-Aqrabiyah","الخبر  العقربية","Al-Khobar - Al-Aqrabiyah","https://maps.app.goo.gl/FWc9ffTcSkJKKmxx5","920016097","2026-01-29 12:55:44.762","2026-01-29 12:55:44.762"
"80","المنطقة الوسطى"," central region","الخرج - الملقا ","Al-Kharj – Al-Mulqa","الخرج - الملقا ","Al-Kharj – Al-Mulqa","https://maps.app.goo.gl/o72taJCnAg32xZcE7","920016097","2026-01-29 12:55:45.269","2026-01-29 12:55:53.681"
"81","المنطقة الوسطى"," central region","الرياض-الحزم","Riyadh-Al Hazm","الرياض-الحزم","Riyadh-Al Hazm","https://maps.app.goo.gl/GkHdgYJRapvqwfkP9","920016097","2026-01-29 12:55:49.070","2026-01-29 12:55:49.070"
"82","المنطقة الوسطى"," central region","الرياض - الياسمين","Riyadh - Al-Yasmin","الرياض - الياسمين","Riyadh - Al-Yasmin","https://maps.app.goo.gl/JoCW4fvDDSYC1abx8","920016097","2026-01-29 12:56:25.986","2026-01-29 12:56:25.986"
"83","المنطقة الشمالية ","Northern Region","تبوك - العليا ","Tabuk – Al-Olaya","تبوك - العليا","Tabuk – Al-Olaya","https://maps.app.goo.gl/Lmd7zVU2RLehbZ5C9","920016097","2026-01-29 12:56:42.089","2026-01-29 12:56:53.021"
"84","المنطقة الغربية ","Western Region","مكة المكرمة - بطحاء قريش ","Mecca - Bat'ha Quraysh","مكة المكرمة - بطحاء قريش ","Mecca - Bat'ha Quraysh","https://maps.app.goo.gl/U77Zmvjvjo3rNDEf9","920016097","2026-01-29 12:56:45.691","2026-01-29 12:56:45.691"
"85","المنطقة الغربية ","Western Region","القنفذة-طريق الملك عبدالعزيز","Al Qunfudhah-King Abdulaziz Road","القنفذة-طريق الملك عبدالعزيز","Al Qunfudhah-King Abdulaziz Road","https://maps.app.goo.gl/EnrZfR648SC171Y56","920016097","2026-01-29 12:57:06.549","2026-01-29 12:57:06.549"
"86","المنطقة الوسطى"," central region","شقراء - القارة","Shaqra - Al-Qara","شقراء القارة","Shaqra - Al-Qara","https://maps.app.goo.gl/GxMUSHbGrLQLAdbd7","920016097","2026-01-29 12:57:19.934","2026-01-29 12:57:19.934"
"87","المنطقة الوسطى","Outside the Kingdom of Saudi Arabia","الرياض - العارض سعود بن جلوي ","Riyadh – Al-Arid, Saud Bin Jalawi","الرياض - العارض سعود بن جلوي","Riyadh – Al-Arid, Saud Bin Jalawi","https://maps.app.goo.gl/uUy6wwP4GLEgWFP1A","920016097","2026-01-29 12:57:45.797","2026-01-29 12:57:45.797"
"88","المنطقة الغربية ","Western Region","مكة المكرمة - المعيصم","Mecca - Al-Mu'aysim","مكة المكرمة - المعيصم","Mecca - Al-Mu'aysim","https://maps.app.goo.gl/6z5SPN1k9VQ41nXG8","920016097","2026-01-29 12:57:58.612","2026-01-29 12:57:58.612"
"89","المنطقة الغربية ","Western Region","جدة-الحمدانية","Jeddah-Al Hamdaniyah","جدة-الحمدانية","Jeddah-Al Hamdaniyah","https://maps.app.goo.gl/AESt6uHeibUREhCa9","920016097","2026-01-29 12:58:07.126","2026-01-29 12:58:07.126"
"90","المنطقة الوسطى"," central region","الخرج - الفيصلية","Al-Kharj - Al-Faisaliyah","الخرج - الفيصلية","Al-Kharj - Al-Faisaliyah","https://maps.app.goo.gl/FoEd6XYVPcdp4RJc8","920016097","2026-01-29 12:58:27.085","2026-01-29 12:58:27.085"
"91","المنطقة الوسطى"," central region","الرياض - الريان ","Riyadh – Al-Rayan","الرياض - الريان ","Riyadh – Al-Rayan","https://maps.app.goo.gl/RFmjFw9ApVeKUH4j8","920016097","2026-01-29 12:58:27.961","2026-01-29 12:58:27.961"
"92","المنطقة الوسطى"," central region","الرياض-القادسية","Riyadh-Al Qadisiyah","الرياض-القادسية","Riyadh-Al Qadisiyah","https://maps.app.goo.gl/1iQS9tKjVw1ZLHF3A","920016097","2026-01-29 12:59:02.511","2026-01-29 12:59:02.511"
"93","المنطقة الوسطى"," central region","الرياض - الثمامة","Riyadh - Al Thumamah","الرياض - الثمامة","Riyadh - Al Thumamah","https://maps.app.goo.gl/3fUwS9SHS3ZstQzj8","920016097","2026-01-29 12:59:07.242","2026-01-29 12:59:07.242"
"94","المنطقة الوسطى"," central region","حوطة بني تميم - طريق الملك فهد","Hotat Bani Tamim - King Fahd Road","حوطة بني تميم - طريق الملك فهد","Hotat Bani Tamim - King Fahd Road","https://maps.app.goo.gl/rwhrCy7oLoFeV1Tc9","920016097","2026-01-29 12:59:17.806","2026-01-29 12:59:17.806"
"95","المنطقة الوسطى"," central region","المجمعة - المستقبل ","Al-Majma'ah – Al-Mustaqbal","المجمعة - المستقبل","Al-Majma'ah – Al-Mustaqbal","https://maps.app.goo.gl/MoCNYDwojd6KfQ8H8","920016097","2026-01-29 12:59:23.817","2026-01-29 12:59:23.817"
"96","المنطقة الوسطى"," central region","الرياض - السويدي ","Riyadh – Al-Suwaidi","الرياض - السويدي ","Riyadh – Al-Suwaidi","https://maps.app.goo.gl/bGcewFKiSuKkRnm59","920016097","2026-01-29 13:00:09.323","2026-01-29 13:00:09.323"
"97","المنطقة الوسطى"," central region","عنيزة - الفاخرية","Unaizah - Al-Fakhriyah","عنيزة الفاخرية","Unaizah - Al-Fakhriyah","https://maps.app.goo.gl/DzComrwRzAk1MkVLA","920016097","2026-01-29 13:00:10.883","2026-01-29 13:00:10.883"
"98","المنطقة الوسطى"," central region","الرياض - المونسية ","Riyadh - Al-Munsiyah","الرياض - المونسية ","Riyadh - Al-Munsiyah","https://maps.app.goo.gl/XZ4PF8VC3MMADNcA6","920016097","2026-01-29 13:00:30.890","2026-01-29 13:00:30.890"
"99","المنطقة الوسطى"," central region","الرياض-الشفاء","Riyadh-Al Shifa","الرياض-الشفاء","Riyadh-Al Shifa","https://maps.app.goo.gl/RBMcUqqSNs56yMqm9","920016097","2026-01-29 13:00:40.450","2026-01-29 13:00:40.450"
"100","المنطقة الجنوبية ","southern region","شرورة - طريق الملك سلمان ","Sharurah – King Salman Road","شرورة - طريق الملك سلمان ","Sharurah – King Salman Road","https://maps.app.goo.gl/R4EDPuwmbY4e47xH6","920016097","2026-01-29 13:00:50.218","2026-01-29 13:01:52.758"
"101","المنطقة الشمالية ","Northern Region","حائل - المنتزة","Hail - Al Muntazah","حائل  المنتزة","Hail - Al Muntazah","https://maps.app.goo.gl/i5XqnqW18ZBu8F2t7","920016097","2026-01-29 13:00:59.029","2026-01-29 13:00:59.029"
"102","المنطقة الغربية ","Western Region","خميس مشيط - الموسى ","Khamis Mushait - Al-Mousa","خميس مشيط - الموسى ","Khamis Mushait - Al-Mousa","https://maps.app.goo.gl/hfPPS35RLfWc4vez8","920016097","2026-01-29 13:01:37.708","2026-01-29 13:01:37.708"
"103","المنطقة الوسطى"," central region","الرياض-المهدية","Riyadh-Al Mahdiyyah","الرياض-المهدية","Riyadh-Al Mahdiyyah","https://maps.app.goo.gl/VdV8GznjZhw18NTn9","920016097","2026-01-29 13:01:38.223","2026-01-29 13:01:38.223"
"104","المنطقة الشمالية ","Northern Region","حايل - النقرة ","Ha'il – Al-Naqrah","حايل - النقرة ","Ha'il – Al-Naqrah","https://maps.app.goo.gl/SW2vigcnSuzGggE96","920016097","2026-01-29 13:01:41.318","2026-01-29 13:01:41.318"
"105","المنطقة الغربية ","Western Region","المدينة المنورة - المحمدية","Medina - Al-Muhammadiyah","المدينة المنورة - المحمدية","Medina - Al-Muhammadiyah","https://maps.app.goo.gl/TKTdCXEmZAX14yBi6","920016097","2026-01-29 13:02:19.028","2026-01-29 13:02:19.028"
"106","المنطقة الوسطى"," central region","الرياض-لبن","Riyadh-Laban","الرياض-لبن","Riyadh-Laban","https://maps.app.goo.gl/FgLkBsMt77WRtCx76","920016097","2026-01-29 13:02:29.782","2026-01-29 13:02:29.782"
"107","المنطقة الوسطى"," central region","الرياض - القدية ","Riyadh - Qiddiya","الرياض - القدية ","Riyadh - Qiddiya","https://maps.app.goo.gl/ryKoWBGv83RSk19W6","920016097","2026-01-29 13:02:34.778","2026-01-29 13:02:34.778"
"108","المنطقة الجنوبية ","southern region","محايل عسير - الحسلة الغربي ","Muhayil, Asir – Al-Hasalah West","محايل عسير - الحسلة الغربي","Muhayil, Asir – Al-Hasalah West","https://maps.app.goo.gl/jp9XKNmLVySSRCQo8","920016097","2026-01-29 13:02:43.101","2026-01-29 13:03:43.734"
"109","المنطقة الغربية ","Western Region","مكة - العوالي","Mecca - Al-Awali","مكة العوالي","Mecca - Al-Awali","https://maps.app.goo.gl/cmVEndfgC1tuNXwY7","920016097","2026-01-29 13:03:14.053","2026-01-29 13:03:14.053"
"110","المنطقة الوسطى"," central region","الرياض-سلمان الفارسي","Riyadh-Salman Al Farsi","الرياض-سلمان الفارسي","Riyadh-Salman Al Farsi","https://maps.app.goo.gl/BDR15mZ9YzwpCbZv7","920016097","2026-01-29 13:03:21.855","2026-01-29 13:03:21.855"
"111","المنطقة الشرقية","Eastern region","الدمام - الشاطئ ","Dammam – Al-Shati’","الدمام - الشاطئ","Dammam – Al-Shati’","https://maps.app.goo.gl/FW97Wq9FrbYvvXpU6","920016097","2026-01-29 13:03:28.580","2026-01-29 13:03:28.580"
"112","المنطقة الوسطى"," central region","الزلفي - التحلية","Al-Zulfi - Al-Tahlil","الزلفي - التحلية","Al-Zulfi - Al-Tahlil","https://maps.app.goo.gl/Y91ACRmhsUKM4s2o8","920016097","2026-01-29 13:03:54.529","2026-01-29 13:03:54.529"
"113","المنطقة الوسطى"," central region","الدوادمي-الريان","Al Dawadmi-Al Rayyan","الدوادمي-الريان","Al Dawadmi-Al Rayyan","https://maps.app.goo.gl/68PLR22zyQ6YFLKq9","920016097","2026-01-29 13:04:35.497","2026-01-29 13:04:35.497"
"114","المنطقة الشرقية","Eastern region","سيهات - الكوثر","Saihat - Al Kawthar","سيهات - الكوثر","Saihat - Al Kawthar","https://maps.app.goo.gl/eR3NyBFg8jgXiFnUA","920016097","2026-01-29 13:05:29.037","2026-01-29 13:05:29.037"
"115","المنطقة الوسطى"," central region","الرياض-العزيزية","Riyadh-Al Aziziyah","الرياض-العزيزية","Riyadh-Al Aziziyah","https://maps.app.goo.gl/zDbBuBdChLJQx4N19","920016097","2026-01-29 13:05:33.669","2026-01-29 13:05:33.669"
"116","المنطقة الوسطى"," central region","سدير الجديد - محطة لودر","New Sudair - Loader Fuel Station","سدير الجديد - محطة لودر","New Sudair - Loader Fuel Station","https://maps.app.goo.gl/MuRaknSP3JEphQum9","920016097","2026-01-29 13:06:43.992","2026-01-29 13:06:43.992"
"117","المنطقة الشرقية","Eastern region","الأحساء السلطانية - العيون","Al-Ahsa Sultanate - Al-Uyun","الأحساء السلطانية - العيون","Al-Ahsa Sultanate - Al-Uyun","https://maps.app.goo.gl/VHHQXYE5d1aYajLn6","920016097","2026-01-29 13:07:59.016","2026-01-29 13:07:59.016"
"118","المنطقة الوسطى"," central region","الرس - الحزم","Ar-Rass - Al-Hazm","الرس  الحزم","Ar-Rass - Al-Hazm","https://maps.app.goo.gl/NSBH8CGwXmEG8DAV9","920016097","2026-01-29 13:08:52.437","2026-01-29 13:08:52.437"
"119","المنطقة الوسطى"," central region","البكيرية - طريق الملك عبدالله","Al-Bukairiyah - King Abdullah Road","البكيرية - طريق الملك عبدالله","Al-Bukairiyah - King Abdullah Road","https://maps.app.goo.gl/9hffLMFcsNTjJ5799","920016097","2026-01-29 13:10:03.188","2026-01-29 13:10:03.188"
"120","المنطقة الغربية ","Western Region","مكة - النورية","Mecca - Al-Nouriya","مكة النورية","Mecca - Al-Nouriya","https://maps.app.goo.gl/HUoih3YWhqYNqxGo7","920016097","2026-01-29 13:11:18.815","2026-01-29 13:11:18.815"
"121","المنطقة الوسطى"," central region","الرياض - القيروان","Riyadh - Kairouan","الرياض - القيروان","Riyadh - Kairouan","https://maps.app.goo.gl/ZugjPd4VhaEGekZ86","920016097","2026-01-29 13:11:58.795","2026-01-29 13:11:58.795"
"122","المنطقة الوسطى"," central region","الرياض - الجنادرية","Riyadh - Al-Janadriyah","الرياض - الجنادرية","Riyadh - Al-Janadriyah","https://maps.app.goo.gl/2YeB4YY3vitLEpsn7","920016097","2026-01-29 13:12:41.989","2026-01-29 13:12:41.989"
"123","المنطقة الوسطى"," central region","الرياض - تلال الرمال","Riyadh - Sand Dunes","الرياض تلال الرمال","Riyadh - Sand Dunes","https://maps.app.goo.gl/2HAPKv3TNtKwKdQV6","920016097","2026-01-29 13:13:32.114","2026-01-29 13:13:32.114"
"124","المنطقة الشمالية ","Northern Region","سكاكا - السليمانية","Sakaka - Al Sulaymaniyah","سكاكا  السليمانية","Sakaka - Al Sulaymaniyah","https://maps.app.goo.gl/GwMbURZJ6aKfyqYE9","920016097","2026-01-29 13:14:24.857","2026-01-29 13:14:24.857"
"125","المنطقة الغربية ","Western Region","الطائف - تيرا مول ","Taif - Tera Mall","الطائف - تيرا مول ","Taif - Tera Mall","https://maps.app.goo.gl/JcpHX8ReCn1Cncar6","920016097","2026-02-01 09:23:24.470","2026-02-01 09:23:24.470"
"126","المنطقة الغربية ","Western Region","رابغ - الصبوح","Rabigh - Al-Sabouh","رابغ - الصبوح","Rabigh - Al-Sabouh","https://maps.app.goo.gl/Cu7zzURzpZF285Ba8","920016097","2026-02-01 09:25:38.414","2026-02-01 09:25:38.414"
"127","المنطقة الجنوبية ","southern region","نجران - حبونا ","Najran - Habouna","نجران - حبونا ","Najran - Habouna","https://maps.app.goo.gl/yEWrtihyBoedE2NQ9","920016097","2026-02-01 09:29:36.821","2026-02-01 09:29:36.821"
"128","المنطقة الوسطى"," central region","الرياض - طريق حمزة ","Riyadh - Hamza Road","الرياض - طريق حمزة ","Riyadh - Hamza Road","https://maps.app.goo.gl/o6PfGAbQQtnbsy6F7","920016097","2026-02-01 09:49:54.197","2026-02-01 09:49:54.197"
"129","المنطقة الوسطى"," central region","الرياض - عكاظ","Riyadh - Okaz","الرياض - عكاظ","Riyadh - Okaz","https://maps.app.goo.gl/8XKsdzg1q7tUrvFe6","920016097","2026-02-01 09:51:15.978","2026-02-01 09:51:15.978"
"130","المنطقة الوسطى"," central region","الرياض - طريق الدمام ","Riyadh - Dammam Road","الرياض - طريق الدمام ","Riyadh - Dammam Road","https://maps.app.goo.gl/qwTTp7moqNMgRLaX9","920016097","2026-02-01 09:52:12.963","2026-02-01 09:52:12.963"
"131","خارج المملكة العربية السعودية "," central region","الاردن - غوشة ","Jordan - Ghosha","الاردن - غوشة ","Jordan - Ghosha","https://maps.app.goo.gl/zABBGMMtYW8FWHpS8","920016097","2026-02-01 09:55:20.442","2026-02-01 09:55:20.442"
"132","خارج المملكة العربية السعودية "," central region","قطر - الدوحة ","Qatar - Doha","قطر - الدوحة ","Qatar - Doha","https://maps.app.goo.gl/52Nj5TtLCQGMg7VA8","920016097","2026-02-01 09:56:54.818","2026-02-01 09:56:54.818"
"133","خارج المملكة العربية السعودية "," central region","الكويت - مبارك الكبير ","Kuwait - Mubarak Al-Kabeer","الكويت - مبارك الكبير ","Kuwait - Mubarak Al-Kabeer","https://maps.app.goo.gl/XLcdW4MAfXk17nDF9","920016097","2026-02-01 09:57:55.176","2026-02-01 09:57:55.176"
"134","المنطقة الغربية ","Western Region","جدة - المروة","Jeddah - Al Marwa","جدة - المروة","Jeddah - Al Marwa","https://maps.app.goo.gl/F6hLyWe3Qe2AckFHA","920016097","2026-02-02 08:16:32.492","2026-02-02 08:17:51.035"
"135","المنطقة الوسطى"," central region","الرياض - بدر","Riyadh - Bader","الرياض - بدر","Riyadh - Bader","https://maps.app.goo.gl/7RL6mfKmrx2uV4Wh6","920016097","2026-02-02 08:21:26.119","2026-02-02 08:21:26.119"
"136","المنطقة الغربية ","Western Region","المدينة المنورة - الدفاع طريق الإمام البخاري","Medina - Imam Bukhari Road","المدينة المنورة - الدفاع طريق الإمام البخاري","Medina - Imam Bukhari Road","https://maps.app.goo.gl/wDtXr49t6cbZxW3eA","920016097","2026-02-02 08:24:33.880","2026-02-02 08:24:33.880"
"137","المنطقة الوسطى"," central region","الرياض - المعيقلية ","Riyadh - Al-Muaiqiliyah","الرياض - المعيقلية ","Riyadh - Al-Muaiqiliyah","https://maps.app.goo.gl/en96MArVkak8t5Kt7","920016097","2026-02-02 08:26:01.143","2026-02-02 08:26:01.143"
"138","المنطقة الوسطى"," central region","الرياض - الصناعية الثانية","Riyadh - Second Industrial City","الرياض - الصناعية الثانية","Riyadh - Second Industrial City","https://maps.app.goo.gl/9S3Tnb6RfvRG4TfM9","920016097","2026-02-02 08:27:18.735","2026-02-02 08:27:18.735"
"139","المنطقة الوسطى"," central region","الرياض - الدائري الشرقي","Riyadh - Eastern Ring Road","الرياض - الدائري الشرقي","Riyadh - Eastern Ring Road","https://maps.app.goo.gl/Zp3mHpLRDVv5vAbX9","920016097","2026-02-02 08:29:40.985","2026-02-02 08:29:40.985"
"140","المنطقة الوسطى"," central region","الرياض - الشميسي","Riyadh - Al-Shumaisi","الرياض - الشميسي","Riyadh - Al-Shumaisi","https://maps.app.goo.gl/czXv7mWEEDJydDJZ9","920016097","2026-02-02 08:30:51.141","2026-02-02 08:30:51.141"
"141","المنطقة الوسطى"," central region","الرياض - ظهرة لبن ","Riyadh - Dhahrat Laban","الرياض - ظهرة لبن ","Riyadh - Dhahrat Laban","https://maps.app.goo.gl/i51KX2UrWYp6pEtK9","920016097","2026-02-02 08:31:47.998","2026-02-02 09:11:05.280"
"142","المنطقة الوسطى"," central region","الرياض - طريق الخرج","Riyadh - Al Kharj Road","الرياض - طريق الخرج","Riyadh - Al Kharj Road","https://maps.app.goo.gl/5UAB41qXXTxUuLap8","920016097","2026-02-02 09:06:49.981","2026-02-02 09:06:49.981"
"143","المنطقة الوسطى"," central region","الرياض - النسيم ","Riyadh - Al Naseem","الرياض - النسيم ","Riyadh - Al Naseem","https://maps.app.goo.gl/GUHcaLC73UPVsagZA","920016097","2026-02-02 09:08:17.755","2026-02-02 09:10:52.266"
"144","المنطقة الوسطى"," central region","الرياض - طريق ديراب ","Riyadh - Dirab Road","الرياض - طريق ديراب ","Riyadh - Dirab Road","https://maps.app.goo.gl/5UBq6Po2J1Z2fotTA","920016097","2026-02-02 09:09:14.971","2026-02-02 09:10:42.213"
"145","المنطقة الوسطى"," central region","الرياض - المحمدية","Riyadh - Al-Muhammadiyah","الرياض - المحمدية","Riyadh - Al-Muhammadiyah","https://maps.app.goo.gl/zBk535eXd6beyELv7","920016097","2026-02-02 09:10:25.106","2026-02-02 09:10:25.106"
"146","المنطقة الوسطى"," central region","الرياض - العريجاء","Riyadh - Al-Uraija","الرياض - العريجاء","Riyadh - Al-Uraija","https://maps.app.goo.gl/zA9VNDCuCKm8sKy29","920016097","2026-02-02 09:12:45.489","2026-02-02 09:12:45.489"
"147","المنطقة الوسطى"," central region","الرياض - المناخ","Riyadh - Almunakh","الرياض - المناخ","Riyadh - Almunakh","https://maps.app.goo.gl/LL2hg4jFVxGxQbCz5","920016097","2026-02-02 09:14:36.814","2026-02-02 09:14:36.814"
"148","المنطقة الوسطى"," central region","الرياض - الموسى","Riyadh - Al-Mousa","الرياض - الموسى","Riyadh - Al-Mousa","https://maps.app.goo.gl/GVPmrhSKeLQQHtqY6","920016097","2026-02-02 09:15:33.223","2026-02-02 09:15:33.223"
"149","المنطقة الوسطى"," central region","الرياض - البيان","Riyadh - Al-Bayan","الرياض - البيان","Riyadh - Al-Bayan","https://maps.app.goo.gl/BVNnvSdDUeWsMjXb6","920016097","2026-02-02 09:17:14.873","2026-02-02 09:17:22.516"
"150","المنطقة الوسطى"," central region","الرياض - الأندلس","Riyadh - Andalusia","الرياض - الأندلس","Riyadh - Andalusia","https://maps.app.goo.gl/gCvv2PGsPPeLoKH36","920016097","2026-02-02 09:18:25.534","2026-02-02 09:18:25.534"
"151","المنطقة الوسطى"," central region","الرياض - طريق المطار","Riyadh - Airport Road","الرياض - طريق المطار","Riyadh - Airport Road","https://maps.app.goo.gl/b5k6hpbXPhhNbmNGA","920016097","2026-02-02 09:19:26.524","2026-02-02 09:19:26.524"
"152","المنطقة الوسطى"," central region","الخرج - القاعدة الجوية","Al-Kharj - Alqaeidat Aljawiya","الخرج - القاعدة الجوية","Al-Kharj - Alqaeidat Aljawiya","https://maps.app.goo.gl/vY681rWbCRquUKC17","920016097","2026-02-02 09:32:19.508","2026-02-02 09:32:19.508"
"153","المنطقة الوسطى"," central region","المزاحمية - الجزالا","Al-Muzahmiya - Al-Jazala","المزاحمية - الجزالا","Al-Muzahmiya - Al-Jazala","https://maps.app.goo.gl/E9bZbJRFX4Wb2KtT6","920016097","2026-02-02 09:40:39.037","2026-02-02 09:40:39.037"
"154","المنطقة الوسطى"," central region","عفيف - طريق الملك سلمان ","Afif - King Salman Road","عفيف - طريق الملك سلمان ","Afif - King Salman Road","https://maps.app.goo.gl/W4pGWLDkSoG4jYf56","920016097","2026-02-02 09:41:40.089","2026-02-02 09:41:40.089"
"155","المنطقة الوسطى"," central region","الجبيلة - طريق الأمير سلطان","Al-Jubailah - Prince Sultan Road","الجبيلة - طريق الأمير سلطان","Al-Jubailah - Prince Sultan Road","https://maps.app.goo.gl/FCTtP9TKeZuzFC3Y9","920016097","2026-02-02 09:42:48.562","2026-02-02 09:42:48.562"
"156","المنطقة الوسطى"," central region","الرياض - العارض - طريق أبو بكر","Riyadh - Al-Aridh - Abu Bakr Road","الرياض - العارض - طريق أبو بكر","Riyadh - Al-Aridh - Abu Bakr Road","https://maps.app.goo.gl/cCucXRB6Ab5kjZP38","920016097","2026-02-02 09:44:19.941","2026-02-02 09:44:19.941"
"157","المنطقة الجنوبية ","southern region","أبها - الجوحان - المنسك ","Abha - Al-Jawhan - Al-Mansak","أبها - الجوحان - المنسك ","Abha - Al-Jawhan - Al-Mansak","https://maps.app.goo.gl/12NpTMxmRnbPWj5d9","920016097","2026-02-02 09:50:07.787","2026-02-02 09:50:07.787"
"158","المنطقة الشرقية","Eastern region","الجبيل - طيبة ","Jubail - Taiba","الجبيل - طيبة ","Jubail - Taiba","https://maps.app.goo.gl/et8pKqYhsJYDvC8z5","920016097","2026-02-02 09:51:07.508","2026-02-02 09:51:07.508"
"159","المنطقة الشرقية","Eastern region","الأحساء - النايفية","Al-Ahsaa - Al-Naifiyah","الأحساء - النايفية","Al-Ahsaa - Al-Naifiyah","https://maps.app.goo.gl/QhuEhRSFzhV9aLys8","920016097","2026-02-02 09:54:45.766","2026-02-02 09:54:45.766"
"160","المنطقة الشرقية","Eastern region","الجبيل - الفناتير","Jubail - Fanateer","الجبيل - الفناتير","Jubail - Fanateer","https://maps.app.goo.gl/ru2bngEFM5HGFRDT9","920016097","2026-02-02 09:56:15.692","2026-02-02 09:56:15.692"
"161","المنطقة الوسطى"," central region","بريدة - البساتين","Buraydah - Al-Basatin","بريدة - البساتين","Buraydah - Al-Basatin","https://maps.app.goo.gl/eXkmcqEJhNqxxoGT7","920016097","2026-02-02 09:57:48.263","2026-02-02 09:57:48.263"
"162","المنطقة الجنوبية ","southern region","نجران - الجامعة","Najran - Aljamiea","نجران - الجامعة","Najran - Aljamiea","https://maps.app.goo.gl/wcFshSc6iE7EUV7F7","920016097","2026-02-02 10:00:20.237","2026-02-02 10:00:20.237"
"163","المنطقة الجنوبية ","southern region","سراة عبيدة - طريق الملك خالد","Sarat Abidah - King Khalid Road","سراة عبيدة - طريق الملك خالد","Sarat Abidah - King Khalid Road","https://maps.app.goo.gl/JczBr3tU3eqDDo8u5","920016097","2026-02-02 10:01:30.633","2026-02-02 10:01:30.633"
"164","المنطقة الجنوبية ","southern region","أبو عريش - طريق الأمير سلطان","Abu Arish - Prince Sultan Road","أبو عريش - طريق الأمير سلطان","Abu Arish - Prince Sultan Road","https://maps.app.goo.gl/F96xTKEXJUgRAp738","920016097","2026-02-02 10:03:50.199","2026-02-02 10:03:50.199"
"165","المنطقة الغربية ","Western Region","جدة - أبحر","Jeddah - Abhur","جدة - أبحر","Jeddah - Abhur","https://maps.app.goo.gl/FnZ36XjyvvFJU59T7","920016097","2026-02-02 10:04:36.893","2026-02-02 10:04:36.893"
"166","المنطقة الغربية ","Western Region","جدة - السامر","Jeddah - Al-Samar","جدة - السامر","Jeddah - Al-Samar","https://maps.app.goo.gl/JaTdAjaHVomAnGNJ8","920016097","2026-02-02 10:05:29.440","2026-02-02 10:05:29.440"
"167","المنطقة الغربية ","Western Region","مكة - برج الساعة","Makkah Royal Clock Tower","مكة - برج الساعة","Makkah Royal Clock Tower","https://maps.app.goo.gl/8oJdZJUyvNxyu2qw5","920016097","2026-02-02 10:08:10.351","2026-02-02 10:08:10.351"
"168","المنطقة الغربية ","Western Region","مكة - ولي العهد","Makkah - Crown Prince","مكة - ولي العهد","Makkah - Crown Prince","https://maps.app.goo.gl/qrhswpxQd9ELmL2h7","920016097","2026-02-02 10:09:41.105","2026-02-02 10:09:41.105"
"169","المنطقة الغربية ","Western Region","مكة - الفيحاء ","Makkah  - Al-Fayha","مكة - الفيحاء ","Makkah  - Al-Fayha","https://maps.app.goo.gl/qRUiByokCMwRM3KF7","920016097","2026-02-02 10:11:05.561","2026-02-02 10:11:05.561"
"170","المنطقة الغربية ","Western Region","المدينة المنورة - العريض","Medina - Al-Aridh","المدينة المنورة - العريض","Medina - Al-Aridh","https://maps.app.goo.gl/2yUXFBiLFWoYD6mY9","920016097","2026-02-02 10:18:14.510","2026-02-02 10:18:14.510"
"171","المنطقة الوسطى"," central region","القويعية - الربوة","Al-Quway'iyah - Al-Rabwah","القويعية - الربوة","Al-Quway'iyah - Al-Rabwah","https://maps.app.goo.gl/9CMz3GcCoiCCXdCM9","920016097","2026-02-02 10:20:13.500","2026-02-02 10:20:13.500"
"172","المنطقة الغربية ","Western Region","الطائف - جبره ","Taif - Jabra","الطائف - جبره ","Taif - Jabra","https://maps.app.goo.gl/FLwWrqGEMUC5GsFv7","920016097","2026-02-02 10:21:56.335","2026-02-02 10:21:56.335"
"173","المنطقة الوسطى"," central region","المليداء - المليداء","Al-Mulayda - Al-Mulayda","المليداء - المليداء","Al-Mulayda - Al-Mulayda","https://maps.app.goo.gl/UfU1PAXoxXBCMa8L6","920016097","2026-02-02 10:23:37.958","2026-02-02 10:23:37.958"
"174","المنطقة الجنوبية ","southern region","تثليث - الزهور","Tathlith - Alzuhur","تثليث - الزهور","Tathlith - Alzuhur","https://maps.app.goo.gl/y35P2vS4h1BNg3rp7","920016097","2026-02-02 10:26:16.137","2026-02-02 10:26:16.137"
"175","المنطقة الجنوبية ","southern region","صامطة - حطين ","Samtah - Hittin","صامطة - حطين ","Samtah - Hittin","https://maps.app.goo.gl/n47758KcFhQX1Ke88","920016097","2026-02-02 10:28:45.900","2026-02-02 10:28:45.900"
"176","المنطقة الجنوبية ","southern region","ظهران الجنوب - الورود","Dhahran Al Janoub - Al Wurud","ظهران الجنوب - الورود","Dhahran Al Janoub - Al Wurud","https://maps.app.goo.gl/xDTatvjMgnY7oJuCA","920016097","2026-02-02 10:30:14.010","2026-02-02 10:30:14.010"
"177","المنطقة الجنوبية ","southern region","سبت العلايا - العزيزية","Sabt Al-Alaya - Al-Aziziyah","سبت العلايا - العزيزية","Sabt Al-Alaya - Al-Aziziyah","https://maps.app.goo.gl/g7zhCKGqyjYTcjs56","920016097","2026-02-02 10:31:16.886","2026-02-02 10:31:16.886"
